[{"OBJECT_NAME":"HXMT (HUIYAN)","OBJECT_ID":"2017-034A","EPOCH":"2026-03-09T23:24:09.166176","MEAN_MOTION":15.17468939,"ECCENTRICITY":0.00329459,"INCLINATION":43.0157,"RA_OF_ASC_NODE":15.0865,"ARG_OF_PERICENTER":237.7405,"MEAN_ANOMALY":122.0249,"EPHEMERIS_TYPE":0,"CLASSIFICATION_TYPE":"U","NORAD_CAT_ID":42758,"ELEMENT_SET_NO":999,"REV_AT_EPOCH":48258,"BSTAR":0.00038670516,"MEAN_MOTION_DOT":7.762e-5,"MEAN_MOTION_DDOT":0},{"OBJECT_NAME":"T1DES 1 (DRAGOON 1)","OBJECT_ID":"2025-135Q","EPOCH":"2026-03-09T07:27:07.463520","MEAN_MOTION":15.23819655,"ECCENTRICITY":0.00038782,"INCLINATION":97.4578,"RA_OF_ASC_NODE":184.7906,"ARG_OF_PERICENTER":148.787,"MEAN_ANOMALY":211.3598,"EPHEMERIS_TYPE":0,"CLASSIFICATION_TYPE":"U","NORAD_CAT_ID":64542,"ELEMENT_SET_NO":999,"REV_AT_EPOCH":3970,"BSTAR":0.00060517834,"MEAN_MOTION_DOT":0.00014527,"MEAN_MOTION_DDOT":0}]
